NORAD_CAT_ID,OBJECT_NAME,OBJECT_TYPE,EPOCH,MEAN_MOTION,ECCENTRICITY,INCLINATION,RA_OF_ASC_NODE,ARG_OF_PERICENTER,MEAN_ANOMALY,BSTAR,MEAN_MOTION_DOT,MEAN_MOTION_DDOT,TLE_LINE0,TLE_LINE1,TLE_LINE2,SEMIMAJOR_AXIS,PERIOD,APOGEE,PERIGEE,DECAYED
54158.0,STARLINK-5297,PAYLOAD,2023-01-05 06:40:51,15.08850671,0.000192,53.2166,179.0549,51.3198,308.7966,-2.2852e-05,-6.52e-06,0.0,0 STARLINK-5297,1 54158U 22141B   23005.27837630 -.00000652  00000-0 -22852-4 0  9997,2 54158  53.2166 179.0549 0001920  51.3198 308.7966 15.08850671 10687,6917.848000000001,95.437,541.0409999999998,538.385,0.0
54158.0,STARLINK-5297,PAYLOAD,2023-01-05 13:02:23,15.08850813,0.0001892,53.2161,177.8641,55.5743,304.5428,6.7553e-05,7.87e-06,0.0,0 STARLINK-5297,1 54158U 22141B   23005.54333306  .00000787  00000-0  67553-4 0  9992,2 54158  53.2161 177.8641 0001892  55.5743 304.5428 15.08850813 10721,6917.847,95.437,541.021,538.403,0.0
54158.0,STARLINK-5297,PAYLOAD,2023-01-06 08:07:01,15.08848025,0.0001493,53.2159,174.293,65.372,294.7427,2.9111e-05,1.75e-06,0.0,0 STARLINK-5297,1 54158U 22141B   23006.33820840  .00000175  00000-0  29111-4 0  9993,2 54158  53.2159 174.2930 0001493  65.3720 294.7427 15.08848025 10845,6917.856,95.437,540.754,538.688,0.0
54158.0,STARLINK-5297,PAYLOAD,2023-01-06 12:53:11,15.0884,0.0002103,53.2191,173.4082,27.981,332.1295,-6.1155e-05,-1.261e-05,0.0,0 STARLINK-5297,1 54158U 22141B   23006.53693702 -.00001261  00000-0 -61155-4 0  9993,2 54158  53.2191 173.4082 0002103  27.9810 332.1295 15.08840000 10871,6917.88,95.438,541.2,538.2909999999998,0.0
54158.0,STARLINK-5297,PAYLOAD,2023-01-06 20:50:06,15.08843761,0.0001836,53.2192,171.9199,35.2412,324.8701,-4.634600000000001e-05,-1.026e-05,0.0,0 STARLINK-5297,1 54158U 22141B   23006.86813323 -.00001026  00000-0 -46346-4 0  9996,2 54158  53.2192 171.9199 0001836  35.2412 324.8701 15.08843761 10929,6917.8690000000015,95.437,541.004,538.464,0.0
54158.0,STARLINK-5297,PAYLOAD,2023-01-07 17:30:07,15.08838982,0.0001717,53.2164,168.0509,55.1082,305.0072,-2.9667000000000008e-06,-3.35e-06,0.0,0 STARLINK-5297,1 54158U 22141B   23007.72925645 -.00000335  00000-0 -29667-5 0  9993,2 54158  53.2164 168.0509 0001717  55.1082 305.0072 15.08838982 11058,6917.884,95.438,540.936,538.561,0.0
54158.0,STARLINK-5297,PAYLOAD,2023-01-08 12:34:48,15.08729351,0.0002422,53.2164,164.4826,55.8139,304.3083,0.0018388,0.0002901,0.0,0 STARLINK-5297,1 54158U 22141B   23008.52417459  .00029010  00000-0  18388-2 0  9995,2 54158  53.2164 164.4826 0002422  55.8139 304.3083 15.08729351 11170,6918.219,95.445,541.759,538.408,0.0
54158.0,STARLINK-5297,PAYLOAD,2023-01-09 10:50:12,15.08776472,0.0002081,53.216,160.319,58.4164,301.7031,0.0021547,0.00034111,0.0,0 STARLINK-5297,1 54158U 22141B   23009.45153375  .00034111  00000-0  21547-2 0  9991,2 54158  53.2160 160.3190 0002081  58.4164 301.7031 15.08776472 11319,6918.075,95.442,541.379,538.5,0.0
54158.0,STARLINK-5297,PAYLOAD,2023-01-10 02:44:00,15.08840385,0.000174,53.2163,157.3457,45.2987,314.8146,0.00010402,1.368e-05,0.0,0 STARLINK-5297,1 54158U 22141B   23010.11389678  .00001368  00000-0  10402-3 0  9990,2 54158  53.2163 157.3457 0001740  45.2987 314.8146 15.08840385 11410,6917.879,95.438,540.948,538.5409999999998,0.0
54158.0,STARLINK-5297,PAYLOAD,2023-01-10 10:40:56,15.08837131,0.0001803,53.2161,155.8589,45.6967,314.4173,1.5964e-06,-2.63e-06,0.0,0 STARLINK-5297,1 54158U 22141B   23010.44509886 -.00000263  00000-0  15964-5 0  9995,2 54158  53.2161 155.8589 0001803  45.6967 314.4173 15.08837131 11465,6917.889,95.438,541.001,538.507,0.0
54158.0,STARLINK-5297,PAYLOAD,2023-01-10 18:37:52,15.08839898,0.0001771,53.2168,154.3723,46.267,313.8469,4.0725e-05,3.6000000000000007e-06,0.0,0 STARLINK-5297,1 54158U 22141B   23010.77630089  .00000360  00000-0  40725-4 0  9990,2 54158  53.2168 154.3723 0001771  46.2670 313.8469 15.08839898 11517,6917.880999999999,95.438,540.971,538.521,0.0
54158.0,STARLINK-5297,PAYLOAD,2023-01-11 04:10:10,15.08847667,0.0001686999999999,53.2175,152.5889,45.53100000000001,314.582,0.00012553,1.711e-05,0.0,0 STARLINK-5297,1 54158U 22141B   23011.17373358  .00001711  00000-0  12553-3 0  9996,2 54158  53.2175 152.5889 0001687  45.5310 314.5820 15.08847667 11575,6917.857,95.437,540.889,538.555,0.0
54158.0,STARLINK-5297,PAYLOAD,2023-01-11 12:07:06,15.08849815,0.0001768,53.2167,151.1011,46.5185,313.5954,0.0001398,1.938e-05,0.0,0 STARLINK-5297,1 54158U 22141B   23011.50493082  .00001938  00000-0  13980-3 0  9996,2 54158  53.2167 151.1011 0001768  46.5185 313.5954 15.08849815 11629,6917.85,95.437,540.938,538.492,0.0
54158.0,STARLINK-5297,PAYLOAD,2023-01-11 15:17:52,15.08849444,0.000184,53.2159,150.5064,47.5412,312.5736,0.00016112,2.278e-05,0.0,0 STARLINK-5297,1 54158U 22141B   23011.63741143  .00002278  00000-0  16112-3 0  9992,2 54158  53.2159 150.5064 0001840  47.5412 312.5736 15.08849444 11643,6917.852,95.437,540.989,538.444,0.0
54158.0,STARLINK-5297,PAYLOAD,2023-01-12 02:25:35,15.08829404,0.000161,53.2168,148.4257,44.3411,315.771,-3.3844e-05,-8.26e-06,0.0,0 STARLINK-5297,1 54158U 22141B   23012.10110351 -.00000826  00000-0 -33844-4 0  9997,2 54158  53.2168 148.4257 0001610  44.3411 315.7710 15.08829404 11711,6917.913000000001,95.438,540.8919999999998,538.664,0.0
54158.0,STARLINK-5297,PAYLOAD,2023-01-12 18:19:28,15.08812547,0.0001863,53.2148,145.45,63.5854,296.5329,-0.00017641,-3.092e-05,0.0,0 STARLINK-5297,1 54158U 22141B   23012.76352419 -.00003092  00000-0 -17641-3 0  9996,2 54158  53.2148 145.4500 0001863  63.5854 296.5329 15.08812547 11814,6917.964,95.439,541.118,538.54,0.0
54158.0,STARLINK-5297,PAYLOAD,2023-01-13 02:16:23,15.08826884,0.0001763,53.2157,143.9638,62.5522,297.5649,3.7736e-06,-2.28e-06,0.0,0 STARLINK-5297,1 54158U 22141B   23013.09472178 -.00000228  00000-0  37736-5 0  9994,2 54158  53.2157 143.9638 0001763  62.5522 297.5649 15.08826884 11869,6917.92,95.438,541.005,538.566,0.0
54158.0,STARLINK-5297,PAYLOAD,2023-01-13 11:48:42,15.08840178,0.0001884,53.2151,142.1802,58.0372,302.0803,0.00049422,7.586e-05,0.0,0 STARLINK-5297,1 54158U 22141B   23013.49216179  .00007586  00000-0  49422-3 0  9991,2 54158  53.2151 142.1802 0001884  58.0372 302.0803 15.08840178 11927,6917.88,95.438,541.048,538.442,0.0
54158.0,STARLINK-5297,PAYLOAD,2023-01-13 14:59:29,15.08849485,0.0001813,53.2153,141.5856,57.5128,302.6039,0.0014252,0.00022473,0.0,0 STARLINK-5297,1 54158U 22141B   23013.62464639  .00022473  00000-0  14252-2 0  9996,2 54158  53.2153 141.5856 0001813  57.5128 302.6039 15.08849485 11945,6917.851,95.437,540.971,538.462,0.0
54158.0,STARLINK-5297,PAYLOAD,2023-01-14 08:28:43,15.0887734,0.0001909,53.2153,138.3152,51.0836,309.0326,0.0015745999999999,0.00024886,0.0,0 STARLINK-5297,1 54158U 22141B   23014.35328085  .00024886  00000-0  15746-2 0  9990,2 54158  53.2153 138.3152 0001909  51.0836 309.0326 15.08877340 12053,6917.766,95.435,540.952,538.311,0.0
54158.0,STARLINK-5297,PAYLOAD,2023-01-14 18:01:01,15.08872239,0.0001841,53.2153,136.5312,58.1487,301.9684,0.00080788,0.00012604,0.0,0 STARLINK-5297,1 54158U 22141B   23014.75071351  .00012604  00000-0  80788-3 0  9999,2 54158  53.2153 136.5312 0001841  58.1487 301.9684 15.08872239 12113,6917.781999999999,95.436,540.92,538.373,0.0
54158.0,STARLINK-5297,PAYLOAD,2023-01-15 08:19:30,15.08840674,0.0001674,53.2155,133.8546,72.9308,287.1867,0.00020387,2.958e-05,0.0,0 STARLINK-5297,1 54158U 22141B   23015.34687901  .00002958  00000-0  20387-3 0  9999,2 54158  53.2155 133.8546 0001674  72.9308 287.1867 15.08840674 12200,6917.878000000001,95.438,540.901,538.585,0.0
54158.0,STARLINK-5297,PAYLOAD,2023-01-15 13:05:39,15.08849193,0.000169,53.2155,132.9621,76.9431,283.1749,0.0007658,0.00011924,0.0,0 STARLINK-5297,1 54158U 22141B   23015.54559865  .00011924  00000-0  76580-3 0  9997,2 54158  53.2155 132.9621 0001690  76.9431 283.1749 15.08849193 12236,6917.852,95.437,540.886,538.548,0.0
54158.0,STARLINK-5297,PAYLOAD,2023-01-15 14:41:02,15.08856514,0.0001484,53.2156,132.6655,58.429,301.6847,0.0012026,0.00018912,0.0,0 STARLINK-5297,1 54158U 22141B   23015.61183783  .00018912  00000-0  12026-2 0  9995,2 54158  53.2156 132.6655 0001484  58.4290 301.6847 15.08856514 12241,6917.83,95.437,540.722,538.668,0.0
54158.0,STARLINK-5297,PAYLOAD,2023-01-16 00:13:21,15.08860278,0.0001176,53.2133,130.8815,45.941,314.1679,0.0016721,0.00026438,0.0,0 STARLINK-5297,1 54158U 22141B   23016.00927699  .00026438  00000-0  16721-2 0  9999,2 54158  53.2133 130.8815 0001176  45.9410 314.1679 15.08860278 12308,6917.818,95.436,540.497,538.87,0.0
54158.0,STARLINK-5297,PAYLOAD,2023-01-16 11:21:03,15.08848562,0.0001726,53.2156,128.8,93.5853,266.5336,0.00090493,0.00014147,0.0,0 STARLINK-5297,1 54158U 22141B   23016.47295725  .00014147  00000-0  90493-3 0  9991,2 54158  53.2156 128.8000 0001726  93.5853 266.5336 15.08848562 12376,6917.854,95.437,540.913,538.525,0.0
54158.0,STARLINK-5297,PAYLOAD,2023-01-16 14:31:49,15.08863632,0.0001459,53.2159,128.2066,89.1408,270.9752,0.00081265,0.00012677,0.0,0 STARLINK-5297,1 54158U 22141B   23016.60543277  .00012677  00000-0  81265-3 0  9997,2 54158  53.2159 128.2066 0001459  89.1408 270.9752 15.08863632 12393,6917.808000000001,95.436,540.682,538.664,0.0
54158.0,STARLINK-5297,PAYLOAD,2023-01-17 08:01:04,15.08823464,9.6e-05,53.2148,124.9334,87.3039,272.8063,-0.00014808,-2.643e-05,0.0,0 STARLINK-5297,1 54158U 22141B   23017.33408472 -.00002643  00000-0 -14808-3 0  9998,2 54158  53.2148 124.9334 0000960  87.3039 272.8063 15.08823464 12506,6917.931,95.439,540.46,539.132,0.0
54158.0,STARLINK-5297,PAYLOAD,2023-01-18 07:51:52,15.08837678,7.03e-05,53.2173,120.4781,13.9105,346.1907,0.0013517,0.00021288,0.0,0 STARLINK-5297,1 54158U 22141B   23018.32769417  .00021288  00000-0  13517-2 0  9996,2 54158  53.2173 120.4781 0000703  13.9105 346.1907 15.08837678 12655,6917.887,95.438,540.239,539.266,0.0
